STARLINK-3970           
1 52706U 22053BC  25201.97425598  .00000095  00000+0  24076-4 0  9997
2 52706  53.2156  94.3326 0001674  92.3149 267.8035 15.08840581176338
STARLINK-4007           
1 52707U 22053BD  25201.95216353  .00000644  00000+0  58569-4 0  9997
2 52707  53.2179  94.3211 0001484  94.1587 265.9575 15.08841960176398
STARLINK-3962           
1 52708U 22053BE  25201.93009561  .00000733  00000+0  64130-4 0  9997
2 52708  53.2176  94.5180 0001458  83.8551 276.2607 15.08834360176533
STARLINK-4091           
1 52830U 22062A   25201.81052039 -.00000144  00000+0  90452-5 0  9992
2 52830  53.2155 355.2597 0000890  90.7358 269.3736 15.08839048170770
STARLINK-4089           
1 52831U 22062B   25202.39930055 -.00000262  00000+0  16039-5 0  9990
2 52831  53.2168 352.4225 0001351  86.1956 273.9190 15.08836704171376
STARLINK-4083           
1 52832U 22062C   25201.73321892  .00000343  00000+0  39663-4 0  9997
2 52832  53.2198 355.4136 0001421  99.7571 260.3582 15.08837411170768
STARLINK-4086           
1 52833U 22062D   25202.12698185  .00000027  00000+0  19802-4 0  9996
2 52833  53.2203 353.6452 0001450  89.5707 270.5452 15.08834256170827
STARLINK-4108           
1 52834U 22062E   25201.45721862 -.00000173  00000+0  72460-5 0  9994
2 52834  53.2193 356.6524 0001479  94.8613 265.2548 15.08832742170729
STARLINK-4080           
1 52835U 22062F   25201.71849236  .00000171  00000+0  28803-4 0  9998
2 52835  53.2169 355.4778 0001116  86.5976 273.5144 15.08838519170765
STARLINK-4043           
1 52836U 22062G   25202.14269281  .00000462  00000+0  47118-4 0  9996
2 52836  53.2200 353.8958 0001089  85.4698 274.6418 15.08841323170822
STARLINK-4036           
1 52837U 22062H   25201.70745464 -.00000592  00000+0 -19088-4 0  9991
2 52837  53.2176 355.5284 0001289  94.2153 265.8987 15.08838292170769
STARLINK-4092           
1 52838U 22062J   25202.43977705  .00000282  00000+0  35834-4 0  9999
2 52838  53.2165 352.2303 0001310  94.6634 265.4508 15.08835184171366
STARLINK-4048           
1 52839U 22062K   25201.70009246  .00000783  00000+0  67278-4 0  9998
2 52839  53.2164 355.5619 0001404  92.8914 267.2239 15.08842131170761
STARLINK-4049           
1 52840U 22062L   25201.71483203 -.00000917  00000+0 -39528-4 0  9998
2 52840  53.2184 355.6109 0001217  92.6601 267.4531 15.08833147170767
STARLINK-4065           
1 52841U 22062M   25201.68905507  .00000418  00000+0  44370-4 0  9996
2 52841  53.2192 355.6123 0001236  89.7104 270.4030 15.08841253170764
STARLINK-4046           
1 52842U 22062N   25202.43240775 -.00000076  00000+0  13293-4 0  9991
2 52842  53.2180 352.1984 0001414  90.5594 269.5560 15.08837470171360
STARLINK-4188           
1 52843U 22062P   25202.14538049  .00000391  00000+0  42667-4 0  9990
2 52843  53.2146 353.5634 0001080 101.7177 258.3936 15.08835930171329
STARLINK-4208           
1 52844U 22062Q   25202.42505597 -.00000148  00000+0  87865-5 0  9995
2 52844  53.2188 352.3098 0001378  84.9372 275.1777 15.08839620171360
STARLINK-4168           
1 52845U 22062R   25201.68538545  .00000676  00000+0  60568-4 0  9997
2 52845  53.2198 355.6975 0001242  86.1333 273.9801 15.08837463170763
STARLINK-4212           
1 52846U 22062S   25201.68633342 -.00000104  00000+0  11535-4 0  9996
2 52846  53.2202 355.6365 0001187  84.0099 276.1029 15.08838724170765
STARLINK-4206           
1 52847U 22062T   25201.14441855 -.00000183  00000+0  66174-5 0  9991
2 52847  53.2191 358.0568 0001293  91.4473 268.6668 15.08836654170687
STARLINK-4202           
1 52848U 22062U   25202.42137958  .00001582  00000+0  11746-3 0  9996
2 52848  53.2188 352.3260 0001210  77.6164 282.4963 15.08839696171369
STARLINK-4197           
1 52849U 22062V   25201.80037519 -.00000395  00000+0 -67536-5 0  9993
2 52849  53.2182 345.1135 0001360  90.2371 269.8777 15.08840730170915
STARLINK-4187           
1 52850U 22062W   25202.44077899 -.00000268  00000+0  12768-5 0  9996
2 52850  53.2172 352.5927 0001422  92.3402 267.7753 15.08836360171369
STARLINK-3809           
1 52851U 22062X   25201.79669980 -.00000641  00000+0 -22213-4 0  9993
2 52851  53.2178 345.1313 0001099  84.2248 275.8870 15.08837060170919
STARLINK-4184           
1 52852U 22062Y   25202.53269657 -.00000163  00000+0  78577-5 0  9997
2 52852  53.2187 341.8246 0001481  98.3263 261.7897 15.08838480171513
STARLINK-4189           
1 52853U 22062Z   25201.38917210  .00000493  00000+0  49036-4 0  9997
2 52853  53.2187 346.9298 0001269  88.0167 272.0970 15.08837380170851
STARLINK-4204           
1 52854U 22062AA  25201.66053660  .00000350  00000+0  40107-4 0  9991
2 52854  53.2200 345.7409 0001347  94.3880 265.7266 15.08839563170894
STARLINK-4209           
1 52855U 22062AB  25202.37814069 -.00000321  00000+0 -21128-5 0  9992
2 52855  53.2195 342.5187 0001247  86.4172 273.6962 15.08835814171494
STARLINK-4201           
1 52856U 22062AC  25201.65781987 -.00000072  00000+0  13542-4 0  9997
2 52856  53.2170 345.8013 0001317  91.2561 268.8582 15.08838326170894
