OBJECT_NAME,OBJECT_ID,EPOCH,MEAN_MOTION,ECCENTRICITY,INCLINATION,RA_OF_ASC_NODE,ARG_OF_PERICENTER,MEAN_ANOMALY,EPHEMERIS_TYPE,CLASSIFICATION_TYPE,NORAD_CAT_ID,ELEMENT_SET_NO,REV_AT_EPOCH,BSTAR,MEAN_MOTION_DOT,MEAN_MOTION_DDOT
STARLINK-3970,2022-053BC,2025-07-20T23:22:55.716672,15.08840581,.0001674,53.2156,94.3326,92.3149,267.8035,0,U,52706,999,17633,.24076E-4,.95E-6,0
STARLINK-4007,2022-053BD,2025-07-20T22:51:06.928992,15.08841960,.0001484,53.2179,94.3211,94.1587,265.9575,0,U,52707,999,17639,.58569E-4,.644E-5,0
STARLINK-3962,2022-053BE,2025-07-20T22:19:20.260704,15.08834360,.0001458,53.2176,94.5180,83.8551,276.2607,0,U,52708,999,17653,.6413E-4,.733E-5,0
STARLINK-4091,2022-062A,2025-07-20T19:27:08.961696,15.08839048,.000089,53.2155,355.2597,90.7358,269.3736,0,U,52830,999,17077,.90452E-5,-.144E-5,0
STARLINK-4089,2022-062B,2025-07-21T09:34:59.567520,15.08836704,.0001351,53.2168,352.4225,86.1956,273.9190,0,U,52831,999,17137,.16039E-5,-.262E-5,0
STARLINK-4083,2022-062C,2025-07-20T17:35:50.114688,15.08837411,.0001421,53.2198,355.4136,99.7571,260.3582,0,U,52832,999,17076,.39663E-4,.343E-5,0
STARLINK-4086,2022-062D,2025-07-21T03:02:51.231840,15.08834256,.000145,53.2203,353.6452,89.5707,270.5452,0,U,52833,999,17082,.19802E-4,.27E-6,0
STARLINK-4108,2022-062E,2025-07-20T10:58:23.688768,15.08832742,.0001479,53.2193,356.6524,94.8613,265.2548,0,U,52834,999,17072,.7246E-5,-.173E-5,0
STARLINK-4080,2022-062F,2025-07-20T17:14:37.739904,15.08838519,.0001116,53.2169,355.4778,86.5976,273.5144,0,U,52835,999,17076,.28803E-4,.171E-5,0
STARLINK-4043,2022-062G,2025-07-21T03:25:28.658784,15.08841323,.0001089,53.2200,353.8958,85.4698,274.6418,0,U,52836,999,17082,.47118E-4,.462E-5,0
STARLINK-4036,2022-062H,2025-07-20T16:58:44.080896,15.08838292,.0001289,53.2176,355.5284,94.2153,265.8987,0,U,52837,999,17076,-.19088E-4,-.592E-5,0
STARLINK-4092,2022-062J,2025-07-21T10:33:16.737120,15.08835184,.000131,53.2165,352.2303,94.6634,265.4508,0,U,52838,999,17136,.35834E-4,.282E-5,0
STARLINK-4048,2022-062K,2025-07-20T16:48:07.988544,15.08842131,.0001404,53.2164,355.5619,92.8914,267.2239,0,U,52839,999,17076,.67278E-4,.783E-5,0
STARLINK-4049,2022-062L,2025-07-20T17:09:21.487392,15.08833147,.0001217,53.2184,355.6109,92.6601,267.4531,0,U,52840,999,17076,-.39528E-4,-.917E-5,0
STARLINK-4065,2022-062M,2025-07-20T16:32:14.358048,15.08841253,.0001236,53.2192,355.6123,89.7104,270.4030,0,U,52841,999,17076,.4437E-4,.418E-5,0
STARLINK-4046,2022-062N,2025-07-21T10:22:40.029600,15.08837470,.0001414,53.2180,352.1984,90.5594,269.5560,0,U,52842,999,17136,.13293E-4,-.76E-6,0
STARLINK-4188,2022-062P,2025-07-21T03:29:20.874336,15.08835930,.000108,53.2146,353.5634,101.7177,258.3936,0,U,52843,999,17132,.42667E-4,.391E-5,0
STARLINK-4208,2022-062Q,2025-07-21T10:12:04.835808,15.08839620,.0001378,53.2188,352.3098,84.9372,275.1777,0,U,52844,999,17136,.87865E-5,-.148E-5,0
STARLINK-4168,2022-062R,2025-07-20T16:26:57.302880,15.08837463,.0001242,53.2198,355.6975,86.1333,273.9801,0,U,52845,999,17076,.60568E-4,.676E-5,0
STARLINK-4212,2022-062S,2025-07-20T16:28:19.207488,15.08838724,.0001187,53.2202,355.6365,84.0099,276.1029,0,U,52846,999,17076,.11535E-4,-.104E-5,0
STARLINK-4206,2022-062T,2025-07-20T03:27:57.762720,15.08836654,.0001293,53.2191,358.0568,91.4473,268.6668,0,U,52847,999,17068,.66174E-5,-.183E-5,0
STARLINK-4202,2022-062U,2025-07-21T10:06:47.195712,15.08839696,.000121,53.2188,352.3260,77.6164,282.4963,0,U,52848,999,17136,.11746E-3,.1582E-4,0
STARLINK-4197,2022-062V,2025-07-20T19:12:32.416416,15.08840730,.000136,53.2182,345.1135,90.2371,269.8777,0,U,52849,999,17091,-.67536E-5,-.395E-5,0
STARLINK-4187,2022-062W,2025-07-21T10:34:43.304736,15.08836360,.0001422,53.2172,352.5927,92.3402,267.7753,0,U,52850,999,17136,.12768E-5,-.268E-5,0
STARLINK-3809,2022-062X,2025-07-20T19:07:14.862720,15.08837060,.0001099,53.2178,345.1313,84.2248,275.8870,0,U,52851,999,17091,-.22213E-4,-.641E-5,0
STARLINK-4184,2022-062Y,2025-07-21T12:47:04.983648,15.08838480,.0001481,53.2187,341.8246,98.3263,261.7897,0,U,52852,999,17151,.78577E-5,-.163E-5,0
STARLINK-4189,2022-062Z,2025-07-20T09:20:24.469440,15.08837380,.0001269,53.2187,346.9298,88.0167,272.0970,0,U,52853,999,17085,.49036E-4,.493E-5,0
STARLINK-4204,2022-062AA,2025-07-20T15:51:10.362240,15.08839563,.0001347,53.2200,345.7409,94.3880,265.7266,0,U,52854,999,17089,.40107E-4,.35E-5,0
STARLINK-4209,2022-062AB,2025-07-21T09:04:31.355616,15.08835814,.0001247,53.2195,342.5187,86.4172,273.6962,0,U,52855,999,17149,-.21128E-5,-.321E-5,0
STARLINK-4201,2022-062AC,2025-07-20T15:47:15.636768,15.08838326,.0001317,53.2170,345.8013,91.2561,268.8582,0,U,52856,999,17089,.13542E-4,-.72E-6,0
